{"fetched_at":"2026-07-05T12:47:17.871Z","source":"https://celestrak.org/NORAD/elements/gp.php?GROUP=oneweb&FORMAT=JSON","constellation":"oneweb","records":[{"OBJECT_NAME":"ONEWEB-0545","OBJECT_ID":"2022-166F","EPOCH":"2026-07-04T21:40:24.727008","CLASSIFICATION_TYPE":"U","MEAN_MOTION":13.21825554,"ECCENTRICITY":0.00016489,"INCLINATION":87.924,"RA_OF_ASC_NODE":240.4567,"ARG_OF_PERICENTER":82.2472,"MEAN_ANOMALY":277.8849,"EPHEMERIS_TYPE":0,"NORAD_CAT_ID":54647,"ELEMENT_SET_NO":999,"REV_AT_EPOCH":17384,"BSTAR":-0.00009282789,"MEAN_MOTION_DOT":-2.5e-7,"MEAN_MOTION_DDOT":0},{"OBJECT_NAME":"ONEWEB-0580","OBJECT_ID":"2022-166G","EPOCH":"2026-07-04T15:37:00.689952","CLASSIFICATION_TYPE":"U","MEAN_MOTION":13.21823487,"ECCENTRICITY":0.00019691,"INCLINATION":87.9241,"RA_OF_ASC_NODE":240.5067,"ARG_OF_PERICENTER":85.4854,"MEAN_ANOMALY":274.6505,"EPHEMERIS_TYPE":0,"NORAD_CAT_ID":54648,"ELEMENT_SET_NO":999,"REV_AT_EPOCH":17385,"BSTAR":0.00014324762,"MEAN_MOTION_DOT":7.2e-7,"MEAN_MOTION_DDOT":0},{"OBJECT_NAME":"ONEWEB-0582","OBJECT_ID":"2022-166H","EPOCH":"2026-07-04T16:37:35.691744","CLASSIFICATION_TYPE":"U","MEAN_MOTION":13.21831274,"ECCENTRICITY":0.00020017,"INCLINATION":87.9205,"RA_OF_ASC_NODE":240.4918,"ARG_OF_PERICENTER":79.4352,"MEAN_ANOMALY":280.7008,"EPHEMERIS_TYPE":0,"NORAD_CAT_ID":54649,"ELEMENT_SET_NO":999,"REV_AT_EPOCH":17383,"BSTAR":-0.001031469,"MEAN_MOTION_DOT":-0.00000413,"MEAN_MOTION_DDOT":0},{"OBJECT_NAME":"ONEWEB-0583","OBJECT_ID":"2022-166J","EPOCH":"2026-07-05T03:48:35.770176","CLASSIFICATION_TYPE":"U","MEAN_MOTION":13.2182524,"ECCENTRICITY":0.00019934,"INCLINATION":87.924,"RA_OF_ASC_NODE":240.4212,"ARG_OF_PERICENTER":94.7772,"MEAN_ANOMALY":265.359,"EPHEMERIS_TYPE":0,"NORAD_CAT_ID":54650,"ELEMENT_SET_NO":999,"REV_AT_EPOCH":17390,"BSTAR":0.00012633123,"MEAN_MOTION_DOT":6.5e-7,"MEAN_MOTION_DDOT":0},{"OBJECT_NAME":"ONEWEB-0584","OBJECT_ID":"2022-166K","EPOCH":"2026-07-04T15:34:37.010208","CLASSIFICATION_TYPE":"U","MEAN_MOTION":13.21824702,"ECCENTRICITY":0.00020485,"INCLINATION":87.9239,"RA_OF_ASC_NODE":240.508,"ARG_OF_PERICENTER":94.6571,"MEAN_ANOMALY":265.4797,"EPHEMERIS_TYPE":0,"NORAD_CAT_ID":54651,"ELEMENT_SET_NO":999,"REV_AT_EPOCH":17382,"BSTAR":0.00014839782,"MEAN_MOTION_DOT":7.4e-7,"MEAN_MOTION_DDOT":0},{"OBJECT_NAME":"ONEWEB-0585","OBJECT_ID":"2022-166L","EPOCH":"2026-07-05T03:02:32.959104","CLASSIFICATION_TYPE":"U","MEAN_MOTION":13.21827597,"ECCENTRICITY":0.00021556,"INCLINATION":87.9244,"RA_OF_ASC_NODE":240.4005,"ARG_OF_PERICENTER":100.6399,"MEAN_ANOMALY":259.4978,"EPHEMERIS_TYPE":0,"NORAD_CAT_ID":54652,"ELEMENT_SET_NO":999,"REV_AT_EPOCH":17389,"BSTAR":-0.000083180129,"MEAN_MOTION_DOT":-2.1e-7,"MEAN_MOTION_DDOT":0},{"OBJECT_NAME":"ONEWEB-0586","OBJECT_ID":"2022-166M","EPOCH":"2026-07-05T03:21:57.166272","CLASSIFICATION_TYPE":"U","MEAN_MOTION":13.21825448,"ECCENTRICITY":0.00018976,"INCLINATION":87.9241,"RA_OF_ASC_NODE":240.423,"ARG_OF_PERICENTER":95.1229,"MEAN_ANOMALY":265.0121,"EPHEMERIS_TYPE":0,"NORAD_CAT_ID":54653,"ELEMENT_SET_NO":999,"REV_AT_EPOCH":17389,"BSTAR":0.000099061313,"MEAN_MOTION_DOT":5.4e-7,"MEAN_MOTION_DDOT":0},{"OBJECT_NAME":"ONEWEB-0587","OBJECT_ID":"2022-166N","EPOCH":"2026-07-04T20:20:28.619808","CLASSIFICATION_TYPE":"U","MEAN_MOTION":13.21824937,"ECCENTRICITY":0.00023165,"INCLINATION":87.9251,"RA_OF_ASC_NODE":240.4566,"ARG_OF_PERICENTER":103.4538,"MEAN_ANOMALY":256.6854,"EPHEMERIS_TYPE":0,"NORAD_CAT_ID":54654,"ELEMENT_SET_NO":999,"REV_AT_EPOCH":17401,"BSTAR":-0.000056312677,"MEAN_MOTION_DOT":-1e-7,"MEAN_MOTION_DDOT":0},{"OBJECT_NAME":"ONEWEB-0589","OBJECT_ID":"2022-166P","EPOCH":"2026-07-05T03:17:06.506304","CLASSIFICATION_TYPE":"U","MEAN_MOTION":13.2182538,"ECCENTRICITY":0.00017773,"INCLINATION":87.9236,"RA_OF_ASC_NODE":240.4089,"ARG_OF_PERICENTER":72.6638,"MEAN_ANOMALY":287.4691,"EPHEMERIS_TYPE":0,"NORAD_CAT_ID":54655,"ELEMENT_SET_NO":999,"REV_AT_EPOCH":17391,"BSTAR":-0.0001459325,"MEAN_MOTION_DOT":-4.7e-7,"MEAN_MOTION_DDOT":0},{"OBJECT_NAME":"ONEWEB-0590","OBJECT_ID":"2022-166Q","EPOCH":"2026-07-04T20:37:12.696672","CLASSIFICATION_TYPE":"U","MEAN_MOTION":13.21825486,"ECCENTRICITY":0.00023979,"INCLINATION":87.9242,"RA_OF_ASC_NODE":240.456,"ARG_OF_PERICENTER":89.6426,"MEAN_ANOMALY":270.4983,"EPHEMERIS_TYPE":0,"NORAD_CAT_ID":54656,"ELEMENT_SET_NO":999,"REV_AT_EPOCH":17386,"BSTAR":0.00017040502,"MEAN_MOTION_DOT":8.3e-7,"MEAN_MOTION_DDOT":0},{"OBJECT_NAME":"ONEWEB-0591","OBJECT_ID":"2022-166R","EPOCH":"2026-07-04T15:27:21.695040","CLASSIFICATION_TYPE":"U","MEAN_MOTION":13.21827684,"ECCENTRICITY":0.00021057,"INCLINATION":87.924,"RA_OF_ASC_NODE":240.5121,"ARG_OF_PERICENTER":94.9036,"MEAN_ANOMALY":265.2338,"EPHEMERIS_TYPE":0,"NORAD_CAT_ID":54657,"ELEMENT_SET_NO":999,"REV_AT_EPOCH":17386,"BSTAR":0.00013371404,"MEAN_MOTION_DOT":6.8e-7,"MEAN_MOTION_DDOT":0},{"OBJECT_NAME":"ONEWEB-0592","OBJECT_ID":"2022-166S","EPOCH":"2026-07-04T15:32:10.734144","CLASSIFICATION_TYPE":"U","MEAN_MOTION":13.21823194,"ECCENTRICITY":0.00020406,"INCLINATION":87.925,"RA_OF_ASC_NODE":240.4914,"ARG_OF_PERICENTER":96.8773,"MEAN_ANOMALY":263.2593,"EPHEMERIS_TYPE":0,"NORAD_CAT_ID":54658,"ELEMENT_SET_NO":999,"REV_AT_EPOCH":17374,"BSTAR":0.00013090967,"MEAN_MOTION_DOT":6.7e-7,"MEAN_MOTION_DDOT":0},{"OBJECT_NAME":"ONEWEB-0593","OBJECT_ID":"2022-166T","EPOCH":"2026-07-05T02:57:43.245216","CLASSIFICATION_TYPE":"U","MEAN_MOTION":13.21825383,"ECCENTRICITY":0.00018692,"INCLINATION":87.9241,"RA_OF_ASC_NODE":240.4069,"ARG_OF_PERICENTER":96.8981,"MEAN_ANOMALY":263.2366,"EPHEMERIS_TYPE":0,"NORAD_CAT_ID":54659,"ELEMENT_SET_NO":999,"REV_AT_EPOCH":17391,"BSTAR":-0.000064287626,"MEAN_MOTION_DOT":-1.4e-7,"MEAN_MOTION_DDOT":0},{"OBJECT_NAME":"ONEWEB-0594","OBJECT_ID":"2022-166U","EPOCH":"2026-07-04T21:59:45.222432","CLASSIFICATION_TYPE":"U","MEAN_MOTION":13.21825111,"ECCENTRICITY":0.00021188,"INCLINATION":87.9239,"RA_OF_ASC_NODE":240.4643,"ARG_OF_PERICENTER":101.8785,"MEAN_ANOMALY":258.2587,"EPHEMERIS_TYPE":0,"NORAD_CAT_ID":54660,"ELEMENT_SET_NO":999,"REV_AT_EPOCH":17390,"BSTAR":0.00020663165,"MEAN_MOTION_DOT":9.8e-7,"MEAN_MOTION_DDOT":0},{"OBJECT_NAME":"ONEWEB-0595","OBJECT_ID":"2022-166V","EPOCH":"2026-07-05T02:52:52.816800","CLASSIFICATION_TYPE":"U","MEAN_MOTION":13.2182499,"ECCENTRICITY":0.00022586,"INCLINATION":87.9247,"RA_OF_ASC_NODE":240.4057,"ARG_OF_PERICENTER":100.3911,"MEAN_ANOMALY":259.7477,"EPHEMERIS_TYPE":0,"NORAD_CAT_ID":54661,"ELEMENT_SET_NO":999,"REV_AT_EPOCH":17390,"BSTAR":0.000091608386,"MEAN_MOTION_DOT":5.1e-7,"MEAN_MOTION_DDOT":0},{"OBJECT_NAME":"ONEWEB-0596","OBJECT_ID":"2022-166W","EPOCH":"2026-07-04T15:22:30.163296","CLASSIFICATION_TYPE":"U","MEAN_MOTION":13.21827893,"ECCENTRICITY":0.00021684,"INCLINATION":87.9243,"RA_OF_ASC_NODE":240.5117,"ARG_OF_PERICENTER":98.0689,"MEAN_ANOMALY":262.0691,"EPHEMERIS_TYPE":0,"NORAD_CAT_ID":54662,"ELEMENT_SET_NO":999,"REV_AT_EPOCH":17384,"BSTAR":0.00013971721,"MEAN_MOTION_DOT":7.1e-7,"MEAN_MOTION_DDOT":0}]}
