ONEWEB-0545             
1 54647U 22166F   26185.90306397 -.00000025  00000+0 -92828-4 0  9993
2 54647  87.9240 240.4567 0001648  82.2472 277.8849 13.21825554173844
ONEWEB-0580             
1 54648U 22166G   26185.65070243  .00000072  00000+0  14325-3 0  9999
2 54648  87.9241 240.5067 0001969  85.4854 274.6505 13.21823487173855
ONEWEB-0582             
1 54649U 22166H   26185.69277421 -.00000413  00000+0 -10315-2 0  9996
2 54649  87.9205 240.4918 0002001  79.4352 280.7008 13.21831274173831
ONEWEB-0583             
1 54650U 22166J   26186.15874734  .00000065  00000+0  12633-3 0  9997
2 54650  87.9240 240.4212 0001993  94.7772 265.3590 13.21825240173903
ONEWEB-0584             
1 54651U 22166K   26185.64903947  .00000074  00000+0  14840-3 0  9992
2 54651  87.9239 240.5080 0002048  94.6571 265.4797 13.21824702173827
ONEWEB-0585             
1 54652U 22166L   26186.12677036 -.00000021  00000+0 -83180-4 0  9992
2 54652  87.9244 240.4005 0002155 100.6399 259.4978 13.21827597173891
ONEWEB-0586             
1 54653U 22166M   26186.14024498  .00000054  00000+0  99061-4 0  9992
2 54653  87.9241 240.4230 0001897  95.1229 265.0121 13.21825448173897
ONEWEB-0587             
1 54654U 22166N   26185.84755347 -.00000010  00000+0 -56313-4 0  9990
2 54654  87.9251 240.4566 0002316 103.4538 256.6854 13.21824937174010
ONEWEB-0589             
1 54655U 22166P   26186.13688086 -.00000047  00000+0 -14593-3 0  9992
2 54655  87.9236 240.4089 0001777  72.6638 287.4691 13.21825380173914
ONEWEB-0590             
1 54656U 22166Q   26185.85917473  .00000083  00000+0  17041-3 0  9995
2 54656  87.9242 240.4560 0002397  89.6426 270.4983 13.21825486173865
ONEWEB-0591             
1 54657U 22166R   26185.64400110  .00000068  00000+0  13371-3 0  9993
2 54657  87.9240 240.5121 0002105  94.9036 265.2338 13.21827684173869
ONEWEB-0592             
1 54658U 22166S   26185.64734646  .00000067  00000+0  13091-3 0  9996
2 54658  87.9250 240.4914 0002040  96.8773 263.2593 13.21823194173747
ONEWEB-0593             
1 54659U 22166T   26186.12341719 -.00000014  00000+0 -64288-4 0  9995
2 54659  87.9241 240.4069 0001869  96.8981 263.2366 13.21825383173917
ONEWEB-0594             
1 54660U 22166U   26185.91649563  .00000098  00000+0  20663-3 0  9999
2 54660  87.9239 240.4643 0002118 101.8785 258.2587 13.21825111173908
ONEWEB-0595             
1 54661U 22166V   26186.12005575  .00000051  00000+0  91608-4 0  9990
2 54661  87.9247 240.4057 0002258 100.3911 259.7477 13.21824990173905
ONEWEB-0596             
1 54662U 22166W   26185.64062689  .00000071  00000+0  13972-3 0  9995
2 54662  87.9243 240.5117 0002168  98.0689 262.0691 13.21827893173848
